METAR SPJC 040000Z 17008KT 9999 FEW010 BKN030 17/15 Q1016 NOSIG RMK PP000=
METAR SPJC 032300Z 17008KT 9999 SCT010 OVC030 17/15 Q1015 NOSIG RMK PP000=
METAR SPJC 032200Z 18008KT 9999 SCT010 OVC030 18/15 Q1015 NOSIG RMK PP000=
METAR SPJC 032100Z 17007KT 140V200 9999 FEW010 OVC030 18/15 Q1014 NOSIG RMK PP000=
METAR SPJC 032000Z 21005KT 170V250 9999 OVC030 20/15 Q1014 NOSIG RMK BIRD HAZARD RWY 15 PP000=
METAR SPJC 031900Z 27007KT 230V320 9999 BKN030 21/15 Q1015 NOSIG RMK PP000=
METAR SPJC 031800Z 21005KT 160V260 9999 BKN026 20/15 Q1015 NOSIG RMK BIRD HAZARD RWY 15 PP000=
METAR SPJC 031700Z 20004KT 150V260 9999 SCT012 BKN026 19/15 Q1015 NOSIG RMK BIRD HAZARD RWY 15 PP000=
METAR SPJC 031600Z 19007KT 150V210 9000 SCT009 BKN025 18/15 Q1016 NOSIG RMK BIRD HAZARD RWY 15 PP000=
METAR SPJC 031500Z 21005KT 180V240 8000 SCT009 BKN025 18/16 Q1016 NOSIG RMK PP000=
METAR SPJC 031400Z 17005KT 130V200 8000 SCT025 BKN170 18/16 Q1015 NOSIG RMK PP000=
METAR SPJC 031300Z 20005KT 8000 SCT025 BKN170 17/16 Q1015 NOSIG RMK PP000=
METAR SPJC 031200Z 18004KT 8000 FEW005 BKN170 16/15 Q1015 NOSIG RMK PP000=
METAR SPJC 031100Z 17006KT 9999 SCT005 SCT170 16/15 Q1014 NOSIG RMK PP000=
METAR SPJC 031000Z 15006KT 9999 FEW008 SCT170 16/15 Q1014 NOSIG RMK PP000=
METAR SPJC 030900Z 18005KT CAVOK 16/15 Q1014 NOSIG RMK PP000=
METAR SPJC 030800Z 20004KT CAVOK 15/14 Q1014 NOSIG RMK PP000=
METAR SPJC 030700Z 15004KT 9999 SCT025 16/15 Q1015 NOSIG RMK PP000=
METAR SPJC 030600Z 19004KT 9999 SCT025 16/15 Q1015 NOSIG RMK PP000=
METAR SPJC 030500Z 16004KT 9999 FEW008 SCT100 16/15 Q1015 NOSIG RMK PP000=
METAR SPJC 030400Z 19003KT 9999 FEW008 SCT100 17/15 Q1015 NOSIG=
METAR SPJC 030300Z 17004KT CAVOK 16/15 Q1015 NOSIG RMK PP000=
METAR SPJC 030200Z 18003KT CAVOK 17/14 Q1014 NOSIG RMK PP000=
METAR SPJC 030100Z 18003KT CAVOK 17/14 Q1014 NOSIG RMK PP000=
METAR SPJC 030000Z 19004KT 9999 SCT100 17/15 Q1014 NOSIG RMK PP000=
SPJC 032300Z 0400/0424 18008KT 9999 SCT010 OVC030 TX20/0419Z TN15/0411Z TEMPO 0411/0413 6000 OVC010 FM041500 21006KT 9999 BKN018 BECMG 0417/0419 SCT012 SCT030=
TAF SPJC 031700Z 0318/0418 19008KT 9999 FEW012 BKN025 TX20/0319Z TN15/0411Z FM040300 18005KT 9999 OVC020 BECMG 0406/0408 7000 OVC015 TEMPO 0411/0413 5000 BR OVC010 FM041500 19008KT 9999 BKN017=
SPJC 031100Z 0312/0412 18005KT 9999 SCT005 SCT170 TX20/0319Z TN15/0411Z TEMPO 0312/0314 7000 BKN008 BECMG 0314/0316 26006KT 9999 BKN015 BECMG 0319/0321 19007KT 9999 SCT025 FM040300 18005KT 8000 OVC015=
SPJC 030500Z 0306/0406 23005KT 9999 SCT007 BKN017 TX20/0319Z TN15/0311Z TEMPO 0309/0312 5000 BR OVC012 BECMG 0313/0315 26006KT 9999 OVC020 BECMG 0319/0321 19007KT 9999 SCT025 FM040300 18005KT 8000 OVC015=
